0 COSMOS 2333
1 24297U 96051A   13282.75571994 -.00000252  00000-0 -10873-3 0  6291
2 24297 070.9054 006.4269 0021241 058.1096 076.5888 14.13101062881926
0 COSMOS 2333
1 24297U 96051A   13283.81747461 -.00000219  00000-0 -91082-4 0  6300
2 24297 070.9053 004.1935 0021291 056.4853 077.9417 14.13100566882075
0 COSMOS 2333
1 24297U 96051A   13285.50753647 -.00000194  00000-0 -77801-4 0  6317
2 24297 070.9050 000.6386 0021393 053.9219 035.5901 14.13099651882311
0 COSMOS 2333
1 24297U 96051A   13287.78119367 -.00000166  00000-0 -63111-4 0  6334
2 24297 070.9043 355.8558 0021505 050.4440 082.1124 14.13098643882632
0 COSMOS 2333
1 24297U 96051A   13289.17691309 -.00000157  00000-0 -57986-4 0  6344
2 24297 070.9039 352.9198 0021567 048.3138 342.3914 14.13098381882832
0 COSMOS 2333
1 24297U 96051A   13290.38560539 -.00000143  00000-0 -50724-4 0  6358
2 24297 070.9036 350.3770 0021631 046.4496 011.2486 14.13098057883001
0 COSMOS 2333
1 24297U 96051A   13291.45360035 -.00000135  00000-0 -46209-4 0  6361
2 24297 070.9034 348.1302 0021687 044.8291 044.3224 14.13097807883156
0 COSMOS 2333
1 24297U 96051A   13292.73630527 -.00000121  00000-0 -38925-4 0  6371
2 24297 070.9032 345.4315 0021769 043.0145 089.5297 14.13097519883339
0 COSMOS 2333
1 24297U 96051A   13294.13201809 -.00000113  00000-0 -34884-4 0  6386
2 24297 070.9030 342.4952 0021846 040.9492 349.7049 14.13097207883530
0 COSMOS 2333
1 24297U 96051A   13295.49063050 -.00000088  00000-0 -21475-4 0  6394
2 24297 070.9030 339.6368 0021924 038.9122 061.1720 14.13096673883721
